UNKNOWN                 
1 89184U          26095.59736647  .00029970  00000+0  32599-2 0  9995
2 89184  98.3810 331.1740 0009942 114.9459 245.2790 14.87955259509061
UNKNOWN                 
1 89213U          26095.58416462  .00000590  00000+0  40174-3 0  9993
2 89213  98.7671 327.7056 0227304 173.6620 186.7503 13.91730927468501
UNKNOWN                 
1 89251U          26095.60521033  .00013390  00000+0  78834-2 0  9994
2 89251  62.4816 214.1490 2814765 111.3682 280.8575  9.28088052383731
UNKNOWN                 
1 89261U          26095.24519571  .00001189  00000+0  36417-3 0  9994
2 89261  98.1641  89.8762 0012981 168.3546 191.7948 14.43383089550182
UNKNOWN                 
1 89304U          26093.68488222  .00033862  00000+0  25389-1 0  9993
2 89304  84.2311  73.5522 2866960 200.3667 347.4511  9.12723950448560
UNKNOWN                 
1 89349U          26095.45970309  .00000340  00000+0  11639-2 0  9990
2 89349  90.2528   9.9203 0030506 331.9850  27.9627 12.96301587493480
UNKNOWN                 
1 89379U          26095.54381311  .00004487  00000+0  56804-2 0  9991
2 89379 100.4721 124.3481 0047281 198.7376 161.2024 13.63710362596287
UNKNOWN                 
1 89395U          26095.39962252 -.00000257  00000+0 -24211-2 0  9991
2 89395 102.3871  62.3669 0223470 292.4508 222.8170 12.01553178538391
UNKNOWN                 
1 89403U          26095.52457049  .00000471  00000+0  15637-2 0  9997
2 89403  90.2535   8.4080 0026787 291.0305 243.3627 12.98960915492596
UNKNOWN                 
1 89484U          26094.45623264  .00373066  00000+0  94711-1 0  9993
2 89484  83.9480 121.1592 2813033 234.7945  95.6681  9.45765525365852
UNKNOWN                 
1 89493U          26094.16704198  .00004459  00000+0  21680-2 0  9990
2 89493  99.0118 169.5684 0082159  82.4125 278.6372 14.16977283479866
UNKNOWN                 
1 89494U          26093.66180438  .00004206  00000+0  20476-2 0  9992
2 89494  99.0125 168.9263 0083092  84.0104 277.0532 14.16903910479646
