CCSDS_OMM_VERS = 2.0
CREATION_DATE  = 
ORIGINATOR     = 

OBJECT_NAME    = UNKNOWN
OBJECT_ID      = 
CENTER_NAME    = EARTH
REF_FRAME      = TEME
TIME_SYSTEM    = UTC
MEAN_ELEMENT_THEORY = SGP/SGP4

EPOCH          = 2026-04-05T14:20:12.463008
MEAN_MOTION    = 14.87955259
ECCENTRICITY   = .0009942
INCLINATION    = 98.3810
RA_OF_ASC_NODE = 331.1740
ARG_OF_PERICENTER = 114.9459
MEAN_ANOMALY   = 245.2790

EPHEMERIS_TYPE = 0
CLASSIFICATION_TYPE = U
NORAD_CAT_ID   = 89184
ELEMENT_SET_NO = 999
REV_AT_EPOCH   = 50906
BSTAR          = .32599E-2
MEAN_MOTION_DOT = .2997E-3
MEAN_MOTION_DDOT = 0

CCSDS_OMM_VERS = 2.0
CREATION_DATE  = 
ORIGINATOR     = 

OBJECT_NAME    = UNKNOWN
OBJECT_ID      = 
CENTER_NAME    = EARTH
REF_FRAME      = TEME
TIME_SYSTEM    = UTC
MEAN_ELEMENT_THEORY = SGP/SGP4

EPOCH          = 2026-04-05T14:01:11.823168
MEAN_MOTION    = 13.91730927
ECCENTRICITY   = .0227304
INCLINATION    = 98.7671
RA_OF_ASC_NODE = 327.7056
ARG_OF_PERICENTER = 173.6620
MEAN_ANOMALY   = 186.7503

EPHEMERIS_TYPE = 0
CLASSIFICATION_TYPE = U
NORAD_CAT_ID   = 89213
ELEMENT_SET_NO = 999
REV_AT_EPOCH   = 46850
BSTAR          = .40174E-3
MEAN_MOTION_DOT = .59E-5
MEAN_MOTION_DDOT = 0

CCSDS_OMM_VERS = 2.0
CREATION_DATE  = 
ORIGINATOR     = 

OBJECT_NAME    = UNKNOWN
OBJECT_ID      = 
CENTER_NAME    = EARTH
REF_FRAME      = TEME
TIME_SYSTEM    = UTC
MEAN_ELEMENT_THEORY = SGP/SGP4

EPOCH          = 2026-04-05T14:31:30.172512
MEAN_MOTION    = 9.28088052
ECCENTRICITY   = .2814765
INCLINATION    = 62.4816
RA_OF_ASC_NODE = 214.1490
ARG_OF_PERICENTER = 111.3682
MEAN_ANOMALY   = 280.8575

EPHEMERIS_TYPE = 0
CLASSIFICATION_TYPE = U
NORAD_CAT_ID   = 89251
ELEMENT_SET_NO = 999
REV_AT_EPOCH   = 38373
BSTAR          = .78834E-2
MEAN_MOTION_DOT = .1339E-3
MEAN_MOTION_DDOT = 0

CCSDS_OMM_VERS = 2.0
CREATION_DATE  = 
ORIGINATOR     = 

OBJECT_NAME    = UNKNOWN
OBJECT_ID      = 
CENTER_NAME    = EARTH
REF_FRAME      = TEME
TIME_SYSTEM    = UTC
MEAN_ELEMENT_THEORY = SGP/SGP4

EPOCH          = 2026-04-05T05:53:04.909344
MEAN_MOTION    = 14.43383089
ECCENTRICITY   = .0012981
INCLINATION    = 98.1641
RA_OF_ASC_NODE = 89.8762
ARG_OF_PERICENTER = 168.3546
MEAN_ANOMALY   = 191.7948

EPHEMERIS_TYPE = 0
CLASSIFICATION_TYPE = U
NORAD_CAT_ID   = 89261
ELEMENT_SET_NO = 999
REV_AT_EPOCH   = 55018
BSTAR          = .36417E-3
MEAN_MOTION_DOT = .1189E-4
MEAN_MOTION_DDOT = 0

CCSDS_OMM_VERS = 2.0
CREATION_DATE  = 
ORIGINATOR     = 

OBJECT_NAME    = UNKNOWN
OBJECT_ID      = 
CENTER_NAME    = EARTH
REF_FRAME      = TEME
TIME_SYSTEM    = UTC
MEAN_ELEMENT_THEORY = SGP/SGP4

EPOCH          = 2026-04-03T16:26:13.823808
MEAN_MOTION    = 9.12723950
ECCENTRICITY   = .286696
INCLINATION    = 84.2311
RA_OF_ASC_NODE = 73.5522
ARG_OF_PERICENTER = 200.3667
MEAN_ANOMALY   = 347.4511

EPHEMERIS_TYPE = 0
CLASSIFICATION_TYPE = U
NORAD_CAT_ID   = 89304
ELEMENT_SET_NO = 999
REV_AT_EPOCH   = 44856
BSTAR          = .25389E-1
MEAN_MOTION_DOT = .33862E-3
MEAN_MOTION_DDOT = 0

CCSDS_OMM_VERS = 2.0
CREATION_DATE  = 
ORIGINATOR     = 

OBJECT_NAME    = UNKNOWN
OBJECT_ID      = 
CENTER_NAME    = EARTH
REF_FRAME      = TEME
TIME_SYSTEM    = UTC
MEAN_ELEMENT_THEORY = SGP/SGP4

EPOCH          = 2026-04-05T11:01:58.346976
MEAN_MOTION    = 12.96301587
ECCENTRICITY   = .0030506
INCLINATION    = 90.2528
RA_OF_ASC_NODE = 9.9203
ARG_OF_PERICENTER = 331.9850
MEAN_ANOMALY   = 27.9627

EPHEMERIS_TYPE = 0
CLASSIFICATION_TYPE = U
NORAD_CAT_ID   = 89349
ELEMENT_SET_NO = 999
REV_AT_EPOCH   = 49348
BSTAR          = .11639E-2
MEAN_MOTION_DOT = .34E-5
MEAN_MOTION_DDOT = 0

CCSDS_OMM_VERS = 2.0
CREATION_DATE  = 
ORIGINATOR     = 

OBJECT_NAME    = UNKNOWN
OBJECT_ID      = 
CENTER_NAME    = EARTH
REF_FRAME      = TEME
TIME_SYSTEM    = UTC
MEAN_ELEMENT_THEORY = SGP/SGP4

EPOCH          = 2026-04-05T13:03:05.452704
MEAN_MOTION    = 13.63710362
ECCENTRICITY   = .0047281
INCLINATION    = 100.4721
RA_OF_ASC_NODE = 124.3481
ARG_OF_PERICENTER = 198.7376
MEAN_ANOMALY   = 161.2024

EPHEMERIS_TYPE = 0
CLASSIFICATION_TYPE = U
NORAD_CAT_ID   = 89379
ELEMENT_SET_NO = 999
REV_AT_EPOCH   = 59628
BSTAR          = .56804E-2
MEAN_MOTION_DOT = .4487E-4
MEAN_MOTION_DDOT = 0

CCSDS_OMM_VERS = 2.0
CREATION_DATE  = 
ORIGINATOR     = 

OBJECT_NAME    = UNKNOWN
OBJECT_ID      = 
CENTER_NAME    = EARTH
REF_FRAME      = TEME
TIME_SYSTEM    = UTC
MEAN_ELEMENT_THEORY = SGP/SGP4

EPOCH          = 2026-04-05T09:35:27.385728
MEAN_MOTION    = 12.01553178
ECCENTRICITY   = .022347
INCLINATION    = 102.3871
RA_OF_ASC_NODE = 62.3669
ARG_OF_PERICENTER = 292.4508
MEAN_ANOMALY   = 222.8170

EPHEMERIS_TYPE = 0
CLASSIFICATION_TYPE = U
NORAD_CAT_ID   = 89395
ELEMENT_SET_NO = 999
REV_AT_EPOCH   = 53839
BSTAR          = -.24211E-2
MEAN_MOTION_DOT = -.257E-5
MEAN_MOTION_DDOT = 0

CCSDS_OMM_VERS = 2.0
CREATION_DATE  = 
ORIGINATOR     = 

OBJECT_NAME    = UNKNOWN
OBJECT_ID      = 
CENTER_NAME    = EARTH
REF_FRAME      = TEME
TIME_SYSTEM    = UTC
MEAN_ELEMENT_THEORY = SGP/SGP4

EPOCH          = 2026-04-05T12:35:22.890336
MEAN_MOTION    = 12.98960915
ECCENTRICITY   = .0026787
INCLINATION    = 90.2535
RA_OF_ASC_NODE = 8.4080
ARG_OF_PERICENTER = 291.0305
MEAN_ANOMALY   = 243.3627

EPHEMERIS_TYPE = 0
CLASSIFICATION_TYPE = U
NORAD_CAT_ID   = 89403
ELEMENT_SET_NO = 999
REV_AT_EPOCH   = 49259
BSTAR          = .15637E-2
MEAN_MOTION_DOT = .471E-5
MEAN_MOTION_DDOT = 0

CCSDS_OMM_VERS = 2.0
CREATION_DATE  = 
ORIGINATOR     = 

OBJECT_NAME    = UNKNOWN
OBJECT_ID      = 
CENTER_NAME    = EARTH
REF_FRAME      = TEME
TIME_SYSTEM    = UTC
MEAN_ELEMENT_THEORY = SGP/SGP4

EPOCH          = 2026-04-04T10:56:58.500096
MEAN_MOTION    = 9.45765525
ECCENTRICITY   = .2813033
INCLINATION    = 83.9480
RA_OF_ASC_NODE = 121.1592
ARG_OF_PERICENTER = 234.7945
MEAN_ANOMALY   = 95.6681

EPHEMERIS_TYPE = 0
CLASSIFICATION_TYPE = U
NORAD_CAT_ID   = 89484
ELEMENT_SET_NO = 999
REV_AT_EPOCH   = 36585
BSTAR          = .94711E-1
MEAN_MOTION_DOT = .373066E-2
MEAN_MOTION_DDOT = 0

CCSDS_OMM_VERS = 2.0
CREATION_DATE  = 
ORIGINATOR     = 

OBJECT_NAME    = UNKNOWN
OBJECT_ID      = 
CENTER_NAME    = EARTH
REF_FRAME      = TEME
TIME_SYSTEM    = UTC
MEAN_ELEMENT_THEORY = SGP/SGP4

EPOCH          = 2026-04-04T04:00:32.427072
MEAN_MOTION    = 14.16977283
ECCENTRICITY   = .0082159
INCLINATION    = 99.0118
RA_OF_ASC_NODE = 169.5684
ARG_OF_PERICENTER = 82.4125
MEAN_ANOMALY   = 278.6372

EPHEMERIS_TYPE = 0
CLASSIFICATION_TYPE = U
NORAD_CAT_ID   = 89493
ELEMENT_SET_NO = 999
REV_AT_EPOCH   = 47986
BSTAR          = .2168E-2
MEAN_MOTION_DOT = .4459E-4
MEAN_MOTION_DDOT = 0

CCSDS_OMM_VERS = 2.0
CREATION_DATE  = 
ORIGINATOR     = 

OBJECT_NAME    = UNKNOWN
OBJECT_ID      = 
CENTER_NAME    = EARTH
REF_FRAME      = TEME
TIME_SYSTEM    = UTC
MEAN_ELEMENT_THEORY = SGP/SGP4

EPOCH          = 2026-04-03T15:52:59.898432
MEAN_MOTION    = 14.16903910
ECCENTRICITY   = .0083092
INCLINATION    = 99.0125
RA_OF_ASC_NODE = 168.9263
ARG_OF_PERICENTER = 84.0104
MEAN_ANOMALY   = 277.0532

EPHEMERIS_TYPE = 0
CLASSIFICATION_TYPE = U
NORAD_CAT_ID   = 89494
ELEMENT_SET_NO = 999
REV_AT_EPOCH   = 47964
BSTAR          = .20476E-2
MEAN_MOTION_DOT = .4206E-4
MEAN_MOTION_DDOT = 0

